0 GLOBALSTAR M028
1 25875U 99041D   24001.21117535 -.00000056  00000-0  28459-3 0  9995
2 25875  51.9647 342.2572 0063668 354.2703   5.7424 12.50547311123499
0 GLOBALSTAR M043
1 25874U 99041C   24001.93269017 -.00000062  00000-0  19347-3 0  9999
2 25874  51.9383 245.7602 0013565 121.7240 327.8370 11.25673791 62932
0 GLOBALSTAR M026
1 25873U 99041B   24001.95090633 -.00000014  00000-0  18422-2 0  9995
2 25873  52.0018 285.4597 0002016  75.5496   3.4165 11.06833284 89550
0 GLOBALSTAR M048
1 25872U 99041A   24001.74102323 -.00000072  00000-0 -62223-4 0  9996
2 25872  51.9338 159.7805 0012602 348.3372 111.2224 11.33842428 64583
0 GLOBALSTAR M030
1 25854U 99037D   24001.54599752 -.00000044  00000-0  65771-3 0  9993
2 25854  51.9884  85.7796 0005028 163.4719 196.6262 11.55087413 88596
0 GLOBALSTAR M051
1 25853U 99037C   24001.88788449 -.00000055  00000-0  41931-3 0  9996
2 25853  51.9775 244.9866 0001906  13.9115 346.1748 11.42195274 71562
0 GLOBALSTAR M032
1 25852U 99037B   24001.33611449 -.00000019  00000-0  15268-2 0  9993
2 25852  51.9979  25.2233 0008705 348.5888  11.4713 11.19048172 75132
0 GLOBALSTAR M035
1 25851U 99037A   24001.72554987 -.00000022  00000-0  15850-2 0  9999
2 25851  51.9915 162.3871 0013642 192.8616 267.4273 11.04528380 37429
